42959,IRIDIUM 119,2017,100.4,860.0,+,86.4,Active,1,LEO,USA,USA,Commercial/Government,Communications,Falcon,1 42959U 17061E   24213.51146736  .00000528  00000+0  18157-3 0  9998,2 42959  86.3990 311.7911 0002510  95.1871 264.9611 14.34217939356532,14.34217939,0.000251,LEO
42960,IRIDIUM 107,2017,100.4,860.0,+,86.4,Active,1,LEO,USA,USA,Commercial/Government,Communications,Falcon,1 42960U 17061F   24213.53049581  .00000108  00000+0  31378-4 0  9997,2 42960  86.3990 311.8003 0002351  92.3775 267.7690 14.34218856356540,14.34218856,0.0002351,LEO
42961,IRIDIUM 132,2017,100.4,860.0,+,86.4,Active,1,LEO,USA,USA,Commercial/Government,Communications,Falcon,1 42961U 17061G   24213.53683681  .00000038  00000+0  63906-5 0  9998,2 42961  86.3989 311.7821 0002387  89.4469 270.7001 14.34217333356541,14.34217333,0.0002387,LEO
42962,IRIDIUM 136,2017,100.4,860.0,+,86.4,Active,1,LEO,USA,USA,Commercial/Government,Communications,Falcon,1 42962U 17061H   24213.28947716  .00000050  00000+0  10789-4 0  9997,2 42962  86.3989 311.8887 0002565  98.1564 261.9923 14.34217308356521,14.34217308,0.0002565,LEO
42963,IRIDIUM 139,2017,100.4,860.0,+,86.41,Active,1,LEO,USA,USA,Commercial/Government,Communications,Falcon,1 42963U 17061J   24213.57489317  .00000165  00000+0  51835-4 0  9992,2 42963  86.3993 311.8203 0002533  87.6025 272.5461 14.34217401356573,14.34217401,0.0002533,LEO
42964,IRIDIUM 125,2017,100.4,860.0,+,86.4,Active,1,LEO,USA,USA,Commercial/Government,Communications,Falcon,1 42964U 17061K   24213.56220858  .00000171  00000+0  54026-4 0  9997,2 42964  86.3993 311.8741 0002792  95.2032 264.9482 14.34218255356588,14.34218255,0.0002792,LEO
43070,IRIDIUM 135,2017,100.4,860.0,+,86.39,Active,1,LEO,USA,USA,Commercial/Government,Communications,Falcon,1 43070U 17083A   24213.60610127  .00000059  00000+0  14131-4 0  9995,2 43070  86.3936 248.4975 0001970  93.3358 266.8064 14.34217607345883,14.34217607,0.000197,LEO
43071,IRIDIUM 138,2017,100.4,860.0,+,86.39,Active,1,LEO,USA,USA,Commercial/Government,Communications,Falcon,1 43071U 17083B   24213.56170435  .00000170  00000+0  53480-4 0  9998,2 43071  86.3925 248.2277 0002619  96.8418 263.3076 14.34218205345869,14.34218205,0.0002619,LEO
